;Z:1.85
;HEIGHT:0.3
G1 E.42104 F2400
G92 E0
G1 Z1.85 F7800
G1 X95.862 Y103.758
G1 E2 F2400
;TYPE:Perimeter
;WIDTH:0.45
G1 F900
G1 X95.901 Y103.793 E2.00252
G1 X96.306 Y104.351 E2.03568
G1 X96.587 Y104.981 E2.06886
G1 X96.73 Y105.655 E2.102
G1 X96.73 Y106.345 E2.13519
G1 X96.587 Y107.019 E2.16833
G1 X96.306 Y107.649 E2.20151
G1 X95.901 Y108.207 E2.23467
G1 X95.389 Y108.668 E2.26781
G1 X94.792 Y109.013 E2.30097
G1 X94.136 Y109.226 E2.33414
G1 X93.45 Y109.298 E2.36732
G1 X92.764 Y109.226 E2.4005
G1 X92.108 Y109.013 E2.43367
G1 X91.511 Y108.668 E2.46683
G1 X90.999 Y108.207 E2.49997
G1 X90.593 Y107.649 E2.53316
G1 X90.313 Y107.019 E2.56632
G1 X90.17 Y106.345 E2.59946
G1 X90.17 Y105.655 E2.63265
G1 X90.313 Y104.981 E2.66579
G1 X90.593 Y104.351 E2.69895
G1 X90.999 Y103.793 E2.73214
G1 X91.511 Y103.332 E2.76528
G1 X92.108 Y102.987 E2.79844
G1 X92.454 Y102.875 E2.81593
G1 X92.962 Y102.738 E2.84124
G1 X93.503 Y102.703 E2.86731
G1 X94.133 Y102.773 E2.8978
G1 X94.792 Y102.987 E2.93112
G1 X95.389 Y103.332 E2.96428
G1 X95.818 Y103.718 E2.99204
G1 X96.135 Y103.485 F7800
G1 F900
G1 X96.189 Y103.533 E2.99551
G1 X96.642 Y104.157 E3.0326
G1 X96.956 Y104.861 E3.06968
G1 X97.116 Y105.615 E3.10675
G1 X97.116 Y106.385 E3.14378
G1 X96.956 Y107.139 E3.18085
G1 X96.642 Y107.843 E3.21793
G1 X96.189 Y108.467 E3.25502
G1 X95.617 Y108.982 E3.29204
G1 X94.949 Y109.367 E3.32912
G1 X94.216 Y109.606 E3.3662
G1 X93.45 Y109.686 E3.40324
G1 X92.684 Y109.606 E3.44028
G1 X91.951 Y109.367 E3.47736
G1 X91.283 Y108.982 E3.51444
G1 X90.711 Y108.467 E3.55146
G1 X90.258 Y107.843 E3.58855
G1 X89.944 Y107.139 E3.62563
G1 X89.784 Y106.385 E3.6627
G1 X89.784 Y105.615 E3.69973
G1 X89.944 Y104.861 E3.7368
G1 X90.258 Y104.157 E3.77388
G1 X90.711 Y103.533 E3.81097
G1 X91.283 Y103.018 E3.84799
G1 X91.951 Y102.633 E3.88507
G1 X92.335 Y102.508 E3.90449
G1 X92.901 Y102.358 E3.93265
G1 X93.518 Y102.316 E3.96239
G1 X94.215 Y102.394 E3.99612
G1 X94.949 Y102.633 E4.03325
G1 X95.617 Y103.018 E4.07033
G1 X96.091 Y103.445 E4.10101
G1 X96.408 Y103.212 F7800
;TYPE:External perimeter
G1 F900
G1 X96.477 Y103.274 E4.10547
G1 X96.978 Y103.963 E4.14644
G1 X97.324 Y104.741 E4.18739
G1 X97.502 Y105.574 E4.22836
G1 X97.502 Y106.426 E4.26934
G1 X97.324 Y107.259 E4.31031
G1 X96.978 Y108.037 E4.35126
G1 X96.477 Y108.726 E4.39223
G1 X95.845 Y109.296 E4.43316
G1 X95.107 Y109.722 E4.47414
G1 X94.297 Y109.985 E4.5151
G1 X93.45 Y110.074 E4.55606
G1 X92.603 Y109.985 E4.59702
G1 X91.793 Y109.722 E4.63798
G1 X91.055 Y109.296 E4.67896
G1 X90.423 Y108.726 E4.71989
G1 X89.922 Y108.037 E4.76086
G1 X89.575 Y107.259 E4.80183
G1 X89.398 Y106.426 E4.84279
G1 X89.398 Y105.574 E4.88377
G1 X89.575 Y104.741 E4.92473
G1 X89.922 Y103.963 E4.9657
G1 X90.423 Y103.274 E5.00667
G1 X91.055 Y102.704 E5.0476
G1 X91.793 Y102.278 E5.08858
G1 X92.383 Y102.087 E5.11841
G1 X93.022 Y101.948 E5.14986
G1 X93.532 Y101.93 E5.1744
G1 X94.296 Y102.015 E5.21137
G1 X95.107 Y102.278 E5.25238
G1 X95.845 Y102.704 E5.29336
G1 X96.364 Y103.171 E5.32694
G1 X96.621 Y103.478 F7800
G1 E3.32694 F2400
G92 E0
G1 X95.711 Y107.953 F7800
G1 E2 F2400
;TYPE:Solid infill
;WIDTH:0.452115
G1 F1200
G1 X96.005 Y107.57 E2.02335
;WIDTH:0.472426
G1 X96.272 Y106.988 E2.05594
;WIDTH:0.488784
G1 X96.386 Y106.479 E2.08355
;WIDTH:0.503527
G1 X96.414 Y105.711 E2.12564
G1 X96.299 Y105.097 E2.15986
;WIDTH:0.482717
G1 X96.058 Y104.518 E2.19258
;WIDTH:0.461989
G1 X95.7 Y104.001 E2.22377
;WIDTH:0.450082
G1 X95.233 Y103.58 E2.25402
;WIDTH:0.469884
G1 X94.688 Y103.272 E2.28568
;WIDTH:0.493011
G1 X94.088 Y103.085 E2.31928
;WIDTH:0.510181
G1 X93.519 Y103.026 E2.35109
G1 X92.98 Y103.058 E2.38111
;WIDTH:0.489421
G1 X92.363 Y103.217 E2.41489
;WIDTH:0.466214
G1 X91.788 Y103.503 E2.44708
;WIDTH:0.445203
G1 X91.306 Y103.894 E2.47656
;WIDTH:0.452114
G1 X90.895 Y104.43 E2.50922
;WIDTH:0.472424
G1 X90.628 Y105.012 E2.54181
;WIDTH:0.488785
G1 X90.514 Y105.521 E2.56942
;WIDTH:0.503528
G1 X90.486 Y106.289 E2.61151
G1 X90.601 Y106.903 E2.64573
;WIDTH:0.482718
G1 X90.842 Y107.482 E2.67845
;WIDTH:0.461989
G1 X91.202 Y107.997 E2.70961
;WIDTH:0.45405
G1 X91.668 Y108.418 E2.74013
;WIDTH:0.472457
G1 X92.213 Y108.727 E2.77202
;WIDTH:0.491511
G1 X92.808 Y108.915 E2.80526
;WIDTH:0.510424
G1 X93.427 Y108.975 E2.83986
G1 X93.966 Y108.935 E2.86993
;WIDTH:0.486685
G1 X94.537 Y108.783 E2.90105
;WIDTH:0.466195
G1 X95.112 Y108.497 E2.93323
;WIDTH:0.445205
G1 X95.594 Y108.106 E2.96271
G1 E.96271 F2400
G92 E0
G1 X90.987 Y106.681 F7800
G1 E2 F2400
;WIDTH:0.47459
G1 F1200
G1 X91.07 Y107.023 E2.01801
;WIDTH:0.460471
G1 X91.292 Y107.488 E2.04347
;WIDTH:0.442861
G1 X91.626 Y107.904 E2.06865
;WIDTH:0.45405
G1 X91.905 Y108.11 E2.08551
;WIDTH:0.472457
G1 X92.386 Y108.359 E2.11308
;WIDTH:0.491511
G1 X92.904 Y108.5 E2.14168
;WIDTH:0.510424
G1 X93.449 Y108.53 E2.17205
G1 X93.982 Y108.505 E2.20173
;WIDTH:0.489949
G1 X94.503 Y108.37 E2.2303
;WIDTH:0.468255
G1 X94.986 Y108.129 E2.25749
;WIDTH:0.447237
G1 X95.396 Y107.783 E2.28311
;WIDTH:0.456527
G1 X95.707 Y107.313 E2.31067
;WIDTH:0.475468
G1 X95.907 Y106.791 E2.33933
;WIDTH:0.502245
G1 X95.977 Y106.29 E2.36696
;WIDTH:0.503527
G1 X95.975 Y105.712 E2.39862
G1 X95.89 Y105.185 E2.42786
;WIDTH:0.482717
G1 X95.695 Y104.682 E2.45601
;WIDTH:0.461989
G1 X95.396 Y104.225 E2.48309
;WIDTH:0.450082
G1 X94.988 Y103.878 E2.50886
;WIDTH:0.469884
G1 X94.506 Y103.634 E2.53618
;WIDTH:0.493011
G1 X93.983 Y103.5 E2.56504
;WIDTH:0.510181
G1 X93.495 Y103.47 E2.59223
G1 X92.942 Y103.489 E2.623
;WIDTH:0.4912
G1 X92.397 Y103.63 E2.65297
;WIDTH:0.468271
G1 X91.914 Y103.871 E2.68016
;WIDTH:0.447231
G1 X91.504 Y104.217 E2.70578
;WIDTH:0.456527
G1 X91.193 Y104.687 E2.73334
;WIDTH:0.475469
G1 X90.993 Y105.209 E2.762
;WIDTH:0.502245
G1 X90.923 Y105.71 E2.78963
;WIDTH:0.503528
G1 X90.941 Y106.494 E2.83258
G1 X91.372 Y104.823 F7800
;TYPE:Bridge infill
;WIDTH:0.411718
;HEIGHT:0.4
M106 S255
G1 F3600
G1 X91.382 Y106.544 E2.92784
G1 X91.447 Y106.82 E2.94353
G1 X91.581 Y107.151 E2.9633
G1 X91.663 Y107.302 E2.97281
G1 X91.834 Y107.536 E2.98885
G1 X91.834 Y104.464 E3.15889
G1 X92.018 Y104.3 E3.17253
G1 X92.296 Y104.133 E3.19048
G1 X92.296 Y107.867 E3.39716
G1 X92.757 Y108.038 E3.42438
G1 X92.757 Y103.962 E3.64999
G1 X93.02 Y103.919 E3.66474
G1 X93.219 Y103.916 E3.67576
G1 X93.219 Y108.084 E3.90646
G1 X93.681 Y108.084 E3.93203
G1 X93.681 Y103.916 E4.16273
G1 X93.88 Y103.919 E4.17375
G1 X94.143 Y103.962 E4.1885
G1 X94.143 Y108.038 E4.41411
G1 X94.604 Y107.867 E4.44133
G1 X94.604 Y104.133 E4.64801
G1 X94.882 Y104.3 E4.66596
G1 X95.066 Y104.464 E4.6796
G1 X95.066 Y107.536 E4.84964
G1 X95.237 Y107.302 E4.86568
G1 X95.319 Y107.151 E4.87519
G1 X95.453 Y106.82 E4.89496
G1 X95.518 Y106.544 E4.91065
G1 X95.528 Y104.823 E5.00591
M107
G1 E3.00591 F2400
G92 E0
G1 X95.952 Y96.138 F7800
G1 E2 F2400
;TYPE:Perimeter
;WIDTH:0.45
;HEIGHT:0.3
G1 F900
G1 X95.901 Y96.207 E2.00413
G1 X95.389 Y96.668 E2.03727
G1 X94.792 Y97.013 E2.07043
G1 X94.136 Y97.226 E2.1036
G1 X93.45 Y97.298 E2.13678
G1 X92.764 Y97.226 E2.16996
G1 X92.108 Y97.013 E2.20313
G1 X91.511 Y96.668 E2.23629
G1 X90.999 Y96.207 E2.26943
G1 X90.593 Y95.649 E2.30262
G1 X90.313 Y95.019 E2.33578
G1 X90.17 Y94.345 E2.36892
G1 X90.17 Y93.655 E2.40211
G1 X90.313 Y92.981 E2.43525
G1 X90.593 Y92.351 E2.46841
G1 X90.999 Y91.793 E2.5016
G1 X91.511 Y91.332 E2.53474
G1 X92.108 Y90.987 E2.5679
G1 X92.454 Y90.875 E2.58539
G1 X92.962 Y90.738 E2.6107
G1 X93.503 Y90.703 E2.63677
G1 X94.133 Y90.773 E2.66726
G1 X94.792 Y90.987 E2.70058
G1 X95.389 Y91.332 E2.73374
G1 X95.901 Y91.793 E2.76688
G1 X96.306 Y92.351 E2.80004
G1 X96.587 Y92.981 E2.83322
G1 X96.73 Y93.655 E2.86636
G1 X96.73 Y94.345 E2.89955
G1 X96.587 Y95.02 E2.93274
G1 X96.307 Y95.649 E2.96585
G1 X95.987 Y96.089 E2.99202
G1 X96.252 Y96.381 F7800
G1 F900
G1 X96.189 Y96.467 E2.99715
G1 X95.617 Y96.982 E3.03417
G1 X94.949 Y97.367 E3.07125
G1 X94.216 Y97.606 E3.10833
G1 X93.45 Y97.686 E3.14537
G1 X92.684 Y97.606 E3.18241
G1 X91.951 Y97.367 E3.21949
G1 X91.283 Y96.982 E3.25657
G1 X90.711 Y96.467 E3.29359
G1 X90.258 Y95.843 E3.33068
G1 X89.944 Y95.139 E3.36776
G1 X89.784 Y94.385 E3.40483
G1 X89.784 Y93.615 E3.44186
G1 X89.944 Y92.861 E3.47893
G1 X90.258 Y92.157 E3.51601
G1 X90.711 Y91.533 E3.5531
G1 X91.283 Y91.018 E3.59012
G1 X91.951 Y90.633 E3.6272
G1 X92.335 Y90.508 E3.64662
G1 X92.901 Y90.358 E3.67478
G1 X93.518 Y90.316 E3.70452
G1 X94.215 Y90.394 E3.73825
G1 X94.949 Y90.633 E3.77538
G1 X95.617 Y91.018 E3.81246
G1 X96.189 Y91.533 E3.84948
G1 X96.642 Y92.157 E3.88657
G1 X96.956 Y92.861 E3.92365
G1 X97.116 Y93.615 E3.96072
G1 X97.116 Y94.385 E3.99775
G1 X96.956 Y95.139 E4.03482
G1 X96.642 Y95.843 E4.0719
G1 X96.287 Y96.332 E4.10096
G1 X96.552 Y96.624 F7800
;TYPE:External perimeter
G1 F900
G1 X96.477 Y96.726 E4.10705
G1 X95.845 Y97.296 E4.14798
G1 X95.107 Y97.722 E4.18896
G1 X94.297 Y97.985 E4.22992
G1 X93.45 Y98.074 E4.27088
G1 X92.603 Y97.985 E4.31184
G1 X91.793 Y97.722 E4.3528
G1 X91.055 Y97.296 E4.39378
G1 X90.423 Y96.726 E4.43471
G1 X89.922 Y96.037 E4.47568
G1 X89.575 Y95.259 E4.51665
G1 X89.398 Y94.426 E4.55761
G1 X89.398 Y93.574 E4.59859
G1 X89.575 Y92.741 E4.63955
G1 X89.922 Y91.963 E4.68052
G1 X90.423 Y91.274 E4.72149
G1 X91.055 Y90.704 E4.76242
G1 X91.793 Y90.278 E4.8034
G1 X92.383 Y90.087 E4.83323
G1 X93.022 Y89.948 E4.86468
G1 X93.532 Y89.93 E4.88922
G1 X94.296 Y90.015 E4.92619
G1 X95.107 Y90.278 E4.9672
G1 X95.845 Y90.704 E5.00818
G1 X96.477 Y91.274 E5.04911
G1 X96.978 Y91.963 E5.09008
G1 X97.324 Y92.741 E5.13103
G1 X97.502 Y93.574 E5.172
G1 X97.502 Y94.426 E5.21298
G1 X97.324 Y95.259 E5.25395
G1 X96.978 Y96.037 E5.2949
G1 X96.587 Y96.575 E5.32689
G1 X96.314 Y96.867 F7800
G1 X95.711 Y95.953
;TYPE:Solid infill
;WIDTH:0.452114
G1 F1200
G1 X96.005 Y95.57 E5.35024
;WIDTH:0.472427
G1 X96.272 Y94.988 E5.38283
;WIDTH:0.488774
G1 X96.386 Y94.479 E5.41044
;WIDTH:0.503528
G1 X96.414 Y93.712 E5.45248
G1 X96.299 Y93.097 E5.48675
;WIDTH:0.482714
G1 X96.058 Y92.518 E5.51947
;WIDTH:0.461988
G1 X95.7 Y92.001 E5.55066
;WIDTH:0.450083
G1 X95.233 Y91.58 E5.58091
;WIDTH:0.469885
G1 X94.688 Y91.272 E5.61257
;WIDTH:0.493011
G1 X94.088 Y91.085 E5.64617
;WIDTH:0.510181
G1 X93.519 Y91.026 E5.67798
G1 X92.98 Y91.058 E5.708
;WIDTH:0.489422
G1 X92.363 Y91.217 E5.74178
;WIDTH:0.466215
G1 X91.788 Y91.503 E5.77397
;WIDTH:0.445203
G1 X91.306 Y91.894 E5.80345
;WIDTH:0.452114
G1 X90.895 Y92.43 E5.83611
;WIDTH:0.47242
G1 X90.628 Y93.012 E5.8687
;WIDTH:0.488779
G1 X90.514 Y93.521 E5.89631
;WIDTH:0.503526
G1 X90.486 Y94.288 E5.93835
G1 X90.601 Y94.903 E5.97262
;WIDTH:0.482715
G1 X90.842 Y95.482 E6.00534
;WIDTH:0.461988
G1 X91.202 Y95.997 E6.0365
;WIDTH:0.454043
G1 X91.668 Y96.418 E6.06702
;WIDTH:0.472474
G1 X92.213 Y96.727 E6.09891
;WIDTH:0.491526
G1 X92.808 Y96.915 E6.13215
;WIDTH:0.510429
G1 X93.427 Y96.975 E6.16675
G1 X93.966 Y96.935 E6.19682
;WIDTH:0.486697
G1 X94.537 Y96.783 E6.22794
;WIDTH:0.466213
G1 X95.112 Y96.497 E6.26013
;WIDTH:0.445203
G1 X95.594 Y96.106 E6.28961
G1 E4.28961 F2400
G92 E0
G1 X90.927 Y93.903 F7800
G1 E2 F2400
;WIDTH:0.49734
G1 F1200
G1 X90.941 Y94.494 E2.03192
;WIDTH:0.482321
G1 X91.07 Y95.023 E2.0603
;WIDTH:0.460469
G1 X91.292 Y95.488 E2.08576
;WIDTH:0.442857
G1 X91.626 Y95.904 E2.11094
;WIDTH:0.454043
G1 X91.905 Y96.11 E2.1278
;WIDTH:0.472474
G1 X92.386 Y96.359 E2.15537
;WIDTH:0.491526
G1 X92.904 Y96.5 E2.18397
;WIDTH:0.510429
G1 X93.449 Y96.53 E2.21434
G1 X93.982 Y96.505 E2.24403
;WIDTH:0.489964
G1 X94.503 Y96.37 E2.2726
;WIDTH:0.468269
G1 X94.986 Y96.129 E2.29979
;WIDTH:0.447229
G1 X95.396 Y95.783 E2.32541
;WIDTH:0.45653
G1 X95.707 Y95.313 E2.35298
;WIDTH:0.475448
G1 X95.907 Y94.791 E2.38164
;WIDTH:0.502245
G1 X95.977 Y94.29 E2.40927
;WIDTH:0.503528
G1 X95.975 Y93.712 E2.44093
G1 X95.89 Y93.185 E2.47017
;WIDTH:0.482714
G1 X95.695 Y92.682 E2.49832
;WIDTH:0.461988
G1 X95.396 Y92.225 E2.5254
;WIDTH:0.450083
G1 X94.988 Y91.878 E2.55117
;WIDTH:0.469885
G1 X94.506 Y91.634 E2.57849
;WIDTH:0.493011
G1 X93.983 Y91.5 E2.60735
;WIDTH:0.510181
G1 X93.495 Y91.47 E2.63454
G1 X92.942 Y91.489 E2.66531
;WIDTH:0.491203
G1 X92.397 Y91.63 E2.69528
;WIDTH:0.468271
G1 X91.914 Y91.871 E2.72247
;WIDTH:0.44723
G1 X91.504 Y92.217 E2.74809
;WIDTH:0.456528
G1 X91.193 Y92.687 E2.77566
;WIDTH:0.47242
G1 X91.005 Y93.167 E2.8019
;WIDTH:0.4915
G1 X90.923 Y93.71 E2.83116
G1 X91.372 Y92.823 F7800
;TYPE:Bridge infill
;WIDTH:0.411718
;HEIGHT:0.4
M106 S255
G1 F3600
G1 X91.382 Y94.544 E2.92642
G1 X91.447 Y94.82 E2.94211
G1 X91.581 Y95.151 E2.96188
G1 X91.663 Y95.302 E2.97139
G1 X91.834 Y95.536 E2.98743
G1 X91.834 Y92.464 E3.15747
G1 X92.018 Y92.3 E3.17111
G1 X92.296 Y92.133 E3.18906
G1 X92.296 Y95.867 E3.39574
G1 X92.757 Y96.038 E3.42296
G1 X92.757 Y91.962 E3.64857
G1 X93.02 Y91.919 E3.66332
G1 X93.219 Y91.916 E3.67434
G1 X93.219 Y96.084 E3.90504
G1 X93.681 Y96.084 E3.93061
G1 X93.681 Y91.916 E4.16131
G1 X93.88 Y91.919 E4.17233
G1 X94.143 Y91.962 E4.18708
G1 X94.143 Y96.038 E4.41269
G1 X94.604 Y95.867 E4.43991
G1 X94.604 Y92.133 E4.64659
G1 X94.882 Y92.3 E4.66454
G1 X95.066 Y92.464 E4.67818
G1 X95.066 Y95.536 E4.84822
G1 X95.237 Y95.302 E4.86426
G1 X95.319 Y95.151 E4.87377
G1 X95.453 Y94.82 E4.89354
G1 X95.518 Y94.544 E4.90923
G1 X95.528 Y92.823 E5.00449
M107
G1 E3.00449 F2400
G92 E0
G1 X103.906 Y92.058 F7800
G1 E2 F2400
;TYPE:Perimeter
;WIDTH:0.45
;HEIGHT:0.3
G1 F900
G1 X104.099 Y91.793 E2.01577
G1 X104.611 Y91.332 E2.04891
G1 X105.208 Y90.987 E2.08207
G1 X105.864 Y90.774 E2.11524
G1 X106.55 Y90.702 E2.14842
G1 X107.236 Y90.774 E2.1816
G1 X107.892 Y90.987 E2.21477
G1 X108.489 Y91.332 E2.24793
G1 X109.001 Y91.793 E2.28107
G1 X109.406 Y92.351 E2.31423
G1 X109.687 Y92.981 E2.34741
G1 X109.83 Y93.655 E2.38055
G1 X109.83 Y94.345 E2.41374
G1 X109.687 Y95.019 E2.44688
G1 X109.406 Y95.649 E2.48006
G1 X109.001 Y96.207 E2.51322
G1 X108.489 Y96.668 E2.54636
G1 X107.892 Y97.013 E2.57952
G1 X107.236 Y97.226 E2.61269
G1 X106.55 Y97.298 E2.64587
G1 X105.864 Y97.226 E2.67905
G1 X105.208 Y97.013 E2.71222
G1 X104.611 Y96.668 E2.74538
G1 X104.099 Y96.207 E2.77852
G1 X103.693 Y95.649 E2.81171
G1 X103.413 Y95.019 E2.84487
G1 X103.27 Y94.345 E2.87801
G1 X103.27 Y93.655 E2.9112
G1 X103.413 Y92.981 E2.94434
G1 X103.693 Y92.351 E2.9775
G1 X103.871 Y92.107 E2.99203
G1 X103.606 Y91.815 F7800
G1 F900
G1 X103.811 Y91.533 E3.0088
G1 X104.383 Y91.018 E3.04582
G1 X105.051 Y90.633 E3.0829
G1 X105.784 Y90.394 E3.11998
G1 X106.55 Y90.314 E3.15702
G1 X107.316 Y90.394 E3.19406
G1 X108.049 Y90.633 E3.23114
G1 X108.717 Y91.018 E3.26822
G1 X109.289 Y91.533 E3.30524
G1 X109.742 Y92.157 E3.34233
G1 X110.056 Y92.861 E3.37941
G1 X110.216 Y93.615 E3.41648
G1 X110.216 Y94.385 E3.45351
G1 X110.056 Y95.139 E3.49058
G1 X109.742 Y95.843 E3.52766
G1 X109.289 Y96.467 E3.56475
G1 X108.717 Y96.982 E3.60177
G1 X108.049 Y97.367 E3.63885
G1 X107.316 Y97.606 E3.67593
G1 X106.55 Y97.686 E3.71297
G1 X105.784 Y97.606 E3.75001
G1 X105.051 Y97.367 E3.78709
G1 X104.383 Y96.982 E3.82417
G1 X103.811 Y96.467 E3.86119
G1 X103.358 Y95.843 E3.89828
G1 X103.044 Y95.139 E3.93536
G1 X102.884 Y94.385 E3.97243
G1 X102.884 Y93.615 E4.00946
G1 X103.044 Y92.861 E4.04653
G1 X103.358 Y92.157 E4.08361
G1 X103.571 Y91.864 E4.10103
G1 X103.306 Y91.572 F7800
;TYPE:External perimeter
G1 F900
G1 X103.522 Y91.274 E4.11873
G1 X104.155 Y90.704 E4.1597
G1 X104.893 Y90.278 E4.20068
G1 X105.703 Y90.015 E4.24164
G1 X106.55 Y89.926 E4.2826
G1 X107.397 Y90.015 E4.32356
G1 X108.207 Y90.278 E4.36452
G1 X108.945 Y90.704 E4.4055
G1 X109.577 Y91.274 E4.44643
G1 X110.078 Y91.963 E4.4874
G1 X110.424 Y92.741 E4.52835
G1 X110.602 Y93.574 E4.56932
G1 X110.602 Y94.426 E4.6103
G1 X110.424 Y95.259 E4.65127
G1 X110.078 Y96.037 E4.69222
G1 X109.577 Y96.726 E4.73319
G1 X108.945 Y97.296 E4.77412
G1 X108.207 Y97.722 E4.8151
G1 X107.397 Y97.985 E4.85606
G1 X106.55 Y98.074 E4.89702
G1 X105.703 Y97.985 E4.93798
G1 X104.893 Y97.722 E4.97894
G1 X104.155 Y97.296 E5.01992
G1 X103.523 Y96.726 E5.06085
G1 X103.022 Y96.037 E5.10182
G1 X102.675 Y95.259 E5.14279
G1 X102.498 Y94.426 E5.18375
G1 X102.498 Y93.574 E5.22473
G1 X102.675 Y92.741 E5.26569
G1 X103.022 Y91.963 E5.30666
G1 X103.271 Y91.621 E5.32701
G1 X103.51 Y91.3 F7800
G1 E3.32701 F2400
G92 E0
G1 X107.727 Y96.078 F7800
G1 E2 F2400
;TYPE:Bridge infill
;WIDTH:0.411716
;HEIGHT:0.4
M106 S255
G1 F3600
G1 X106.006 Y96.068 E2.09526
G1 X105.73 Y96.003 E2.11095
G1 X105.399 Y95.869 E2.13072
G1 X105.248 Y95.787 E2.14023
G1 X105.014 Y95.616 E2.15627
G1 X108.086 Y95.616 E2.32631
G1 X108.25 Y95.432 E2.33995
G1 X108.417 Y95.154 E2.3579
G1 X104.683 Y95.154 E2.56458
G1 X104.512 Y94.693 E2.5918
G1 X108.588 Y94.693 E2.81741
G1 X108.631 Y94.43 E2.83216
G1 X108.634 Y94.231 E2.84318
G1 X104.466 Y94.231 E3.07388
G1 X104.466 Y93.769 E3.09945
G1 X108.634 Y93.769 E3.33015
G1 X108.631 Y93.57 E3.34117
G1 X108.588 Y93.307 E3.35592
G1 X104.512 Y93.307 E3.58153
G1 X104.683 Y92.846 E3.60875
G1 X108.417 Y92.846 E3.81543
G1 X108.25 Y92.568 E3.83338
G1 X108.086 Y92.384 E3.84702
G1 X105.014 Y92.384 E4.01706
G1 X105.248 Y92.213 E4.0331
G1 X105.399 Y92.131 E4.04261
G1 X105.73 Y91.997 E4.06238
G1 X106.006 Y91.932 E4.07807
G1 X107.727 Y91.922 E4.17333
M107
G1 E2.17333 F2400
G92 E0
G1 X108.811 Y95.953 F7800
G1 E2 F2400
;TYPE:Solid infill
;WIDTH:0.452107
;HEIGHT:0.3
G1 F1200
G1 X109.105 Y95.57 E2.02335
;WIDTH:0.472406
G1 X109.372 Y94.988 E2.05594
;WIDTH:0.488761
G1 X109.486 Y94.479 E2.08355
;WIDTH:0.503507
G1 X109.514 Y93.712 E2.12559
G1 X109.399 Y93.097 E2.15986
;WIDTH:0.482696
G1 X109.158 Y92.518 E2.19258
;WIDTH:0.46198
G1 X108.8 Y92.001 E2.22377
;WIDTH:0.450089
G1 X108.333 Y91.58 E2.25402
;WIDTH:0.46989
G1 X107.788 Y91.272 E2.28568
;WIDTH:0.492716
G1 X107.192 Y91.086 E2.31904
;WIDTH:0.510573
G1 X106.573 Y91.025 E2.35366
G1 X106.034 Y91.065 E2.38374
;WIDTH:0.486697
G1 X105.463 Y91.217 E2.41486
;WIDTH:0.466216
G1 X104.888 Y91.503 E2.44705
;WIDTH:0.445208
G1 X104.406 Y91.894 E2.47653
;WIDTH:0.452113
G1 X103.995 Y92.43 E2.50919
;WIDTH:0.472421
G1 X103.728 Y93.012 E2.54178
;WIDTH:0.48878
G1 X103.614 Y93.521 E2.56939
;WIDTH:0.503527
G1 X103.586 Y94.288 E2.61143
G1 X103.701 Y94.903 E2.6457
;WIDTH:0.482715
G1 X103.942 Y95.482 E2.67842
;WIDTH:0.46199
G1 X104.302 Y95.997 E2.70958
;WIDTH:0.454048
G1 X104.768 Y96.418 E2.7401
;WIDTH:0.472478
G1 X105.313 Y96.727 E2.77199
;WIDTH:0.491524
G1 X105.908 Y96.915 E2.80523
;WIDTH:0.510427
G1 X106.527 Y96.975 E2.83983
G1 X107.066 Y96.935 E2.8699
;WIDTH:0.486695
G1 X107.637 Y96.783 E2.90102
;WIDTH:0.466216
G1 X108.212 Y96.497 E2.93321
;WIDTH:0.445206
G1 X108.694 Y96.106 E2.96269
G1 E.96269 F2400
G92 E0
G1 X106.551 Y91.47 F7800
G1 E2 F2400
;WIDTH:0.510573
G1 F1200
G1 X107.088 Y91.5 E2.02993
;WIDTH:0.492716
G1 X107.606 Y91.634 E2.05851
;WIDTH:0.46989
G1 X108.088 Y91.878 E2.08583
;WIDTH:0.450089
G1 X108.496 Y92.225 E2.1116
;WIDTH:0.46198
G1 X108.795 Y92.682 E2.13868
;WIDTH:0.482696
G1 X108.99 Y93.185 E2.16683
;WIDTH:0.503507
G1 X109.075 Y93.712 E2.19607
G1 X109.077 Y94.29 E2.22773
;WIDTH:0.502222
G1 X109.007 Y94.791 E2.25536
;WIDTH:0.475448
G1 X108.807 Y95.313 E2.28402
;WIDTH:0.456519
G1 X108.496 Y95.783 E2.31158
;WIDTH:0.447234
G1 X108.086 Y96.129 E2.3372
;WIDTH:0.468276
G1 X107.603 Y96.37 E2.36439
;WIDTH:0.489963
G1 X107.082 Y96.505 E2.39296
;WIDTH:0.510427
G1 X106.549 Y96.53 E2.42265
G1 X106.004 Y96.5 E2.45302
;WIDTH:0.491524
G1 X105.486 Y96.359 E2.48162
;WIDTH:0.472478
G1 X105.005 Y96.11 E2.50919
;WIDTH:0.454048
G1 X104.726 Y95.904 E2.52605
;WIDTH:0.442857
G1 X104.392 Y95.488 E2.55123
;WIDTH:0.460467
G1 X104.17 Y95.023 E2.57669
;WIDTH:0.482322
G1 X104.041 Y94.494 E2.60507
;WIDTH:0.502242
G1 X104.023 Y93.71 E2.6479
G1 X104.093 Y93.209 E2.67553
;WIDTH:0.475465
G1 X104.293 Y92.687 E2.70419
;WIDTH:0.456527
G1 X104.604 Y92.217 E2.73175
;WIDTH:0.447233
G1 X105.014 Y91.871 E2.75737
;WIDTH:0.468275
G1 X105.497 Y91.63 E2.78456
;WIDTH:0.489963
G1 X106.018 Y91.495 E2.81313
;WIDTH:0.503121
G1 X106.358 Y91.479 E2.83176
G1 E.83176 F2400
G92 E0
G1 X103.906 Y104.058 F7800
G1 E2 F2400
;TYPE:Perimeter
;WIDTH:0.45
G1 F900
G1 X104.099 Y103.793 E2.01577
G1 X104.611 Y103.332 E2.04891
G1 X105.208 Y102.987 E2.08207
G1 X105.864 Y102.774 E2.11524
G1 X106.55 Y102.702 E2.14842
G1 X107.236 Y102.774 E2.1816
G1 X107.892 Y102.987 E2.21477
G1 X108.489 Y103.332 E2.24793
G1 X109.001 Y103.793 E2.28107
G1 X109.406 Y104.351 E2.31423
G1 X109.687 Y104.981 E2.34741
G1 X109.83 Y105.655 E2.38055
G1 X109.83 Y106.345 E2.41374
G1 X109.687 Y107.019 E2.44688
G1 X109.406 Y107.649 E2.48006
G1 X109.001 Y108.207 E2.51322
G1 X108.489 Y108.668 E2.54636
G1 X107.892 Y109.013 E2.57952
G1 X107.236 Y109.226 E2.61269
G1 X106.55 Y109.298 E2.64587
G1 X105.864 Y109.226 E2.67905
G1 X105.208 Y109.013 E2.71222
G1 X104.611 Y108.668 E2.74538
G1 X104.099 Y108.207 E2.77852
G1 X103.693 Y107.649 E2.81171
G1 X103.413 Y107.019 E2.84487
G1 X103.27 Y106.345 E2.87801
G1 X103.27 Y105.655 E2.9112
G1 X103.413 Y104.981 E2.94434
G1 X103.693 Y104.351 E2.9775
G1 X103.871 Y104.107 E2.99203
G1 X103.606 Y103.815 F7800
G1 F900
G1 X103.811 Y103.533 E3.0088
G1 X104.383 Y103.018 E3.04582
G1 X105.051 Y102.633 E3.0829
G1 X105.784 Y102.394 E3.11998
G1 X106.55 Y102.314 E3.15702
G1 X107.316 Y102.394 E3.19406
G1 X108.049 Y102.633 E3.23114
G1 X108.717 Y103.018 E3.26822
G1 X109.289 Y103.533 E3.30524
G1 X109.742 Y104.157 E3.34233
G1 X110.056 Y104.861 E3.37941
G1 X110.216 Y105.615 E3.41648
G1 X110.216 Y106.385 E3.45351
G1 X110.056 Y107.139 E3.49058
G1 X109.742 Y107.843 E3.52766
G1 X109.289 Y108.467 E3.56475
G1 X108.717 Y108.982 E3.60177
G1 X108.049 Y109.367 E3.63885
G1 X107.316 Y109.606 E3.67593
G1 X106.55 Y109.686 E3.71297
G1 X105.784 Y109.606 E3.75001
G1 X105.051 Y109.367 E3.78709
G1 X104.383 Y108.982 E3.82417
G1 X103.811 Y108.467 E3.86119
G1 X103.358 Y107.843 E3.89828
G1 X103.044 Y107.139 E3.93536
G1 X102.884 Y106.385 E3.97243
G1 X102.884 Y105.615 E4.00946
G1 X103.044 Y104.861 E4.04653
G1 X103.358 Y104.157 E4.08361
G1 X103.571 Y103.864 E4.10103
G1 X103.306 Y103.572 F7800
;TYPE:External perimeter
G1 F900
G1 X103.522 Y103.274 E4.11873
G1 X104.155 Y102.704 E4.1597
G1 X104.893 Y102.278 E4.20068
G1 X105.703 Y102.015 E4.24164
G1 X106.55 Y101.926 E4.2826
G1 X107.397 Y102.015 E4.32356
G1 X108.207 Y102.278 E4.36452
G1 X108.945 Y102.704 E4.4055
G1 X109.577 Y103.274 E4.44643
G1 X110.078 Y103.963 E4.4874
G1 X110.424 Y104.741 E4.52835
G1 X110.602 Y105.574 E4.56932
G1 X110.602 Y106.426 E4.6103
G1 X110.424 Y107.259 E4.65127
G1 X110.078 Y108.037 E4.69222
G1 X109.577 Y108.726 E4.73319
G1 X108.945 Y109.296 E4.77412
G1 X108.207 Y109.722 E4.8151
G1 X107.397 Y109.985 E4.85606
G1 X106.55 Y110.074 E4.89702
G1 X105.703 Y109.985 E4.93798
G1 X104.893 Y109.722 E4.97894
G1 X104.155 Y109.296 E5.01992
G1 X103.523 Y108.726 E5.06085
G1 X103.022 Y108.037 E5.10182
G1 X102.675 Y107.259 E5.14279
G1 X102.498 Y106.426 E5.18375
G1 X102.498 Y105.574 E5.22473
G1 X102.675 Y104.741 E5.26569
G1 X103.022 Y103.963 E5.30666
G1 X103.271 Y103.621 E5.32701
G1 X103.51 Y103.3 F7800
G1 X104.472 Y104.823
;TYPE:Bridge infill
;WIDTH:0.411718
;HEIGHT:0.4
M106 S255
G1 F3600
G1 X104.482 Y106.544 E5.42227
G1 X104.547 Y106.82 E5.43796
G1 X104.681 Y107.151 E5.45773
G1 X104.763 Y107.302 E5.46724
G1 X104.934 Y107.536 E5.48328
G1 X104.934 Y104.464 E5.65332
G1 X105.118 Y104.3 E5.66696
G1 X105.396 Y104.133 E5.68491
G1 X105.396 Y107.867 E5.89159
G1 X105.857 Y108.038 E5.91881
G1 X105.857 Y103.962 E6.14442
G1 X106.12 Y103.919 E6.15917
G1 X106.319 Y103.916 E6.17019
G1 X106.319 Y108.084 E6.40089
G1 X106.781 Y108.084 E6.42646
G1 X106.781 Y103.916 E6.65716
G1 X106.98 Y103.919 E6.66818
G1 X107.243 Y103.962 E6.68293
G1 X107.243 Y108.038 E6.90854
G1 X107.704 Y107.867 E6.93576
G1 X107.704 Y104.133 E7.14244
G1 X107.982 Y104.3 E7.16039
G1 X108.166 Y104.464 E7.17403
G1 X108.166 Y107.536 E7.34407
G1 X108.337 Y107.302 E7.36011
G1 X108.419 Y107.151 E7.36962
G1 X108.553 Y106.82 E7.38939
G1 X108.618 Y106.544 E7.40508
G1 X108.628 Y104.823 E7.50034
M107
G1 E5.50034 F2400
G92 E0
G1 X108.811 Y107.953 F7800
G1 E2 F2400
;TYPE:Solid infill
;WIDTH:0.452114
;HEIGHT:0.3
G1 F1200
G1 X109.105 Y107.57 E2.02335
;WIDTH:0.472411
G1 X109.372 Y106.988 E2.05594
;WIDTH:0.488764
G1 X109.486 Y106.479 E2.08355
;WIDTH:0.503513
G1 X109.514 Y105.712 E2.12559
G1 X109.399 Y105.097 E2.15986
;WIDTH:0.482696
G1 X109.158 Y104.518 E2.19258
;WIDTH:0.461983
G1 X108.8 Y104.001 E2.22377
;WIDTH:0.450089
G1 X108.333 Y103.58 E2.25402
;WIDTH:0.46989
G1 X107.788 Y103.272 E2.28568
;WIDTH:0.492717
G1 X107.192 Y103.086 E2.31904
;WIDTH:0.510573
G1 X106.573 Y103.025 E2.35366
G1 X106.034 Y103.065 E2.38374
;WIDTH:0.486696
G1 X105.463 Y103.217 E2.41486
;WIDTH:0.466215
G1 X104.888 Y103.503 E2.44705
;WIDTH:0.445207
G1 X104.406 Y103.894 E2.47653
;WIDTH:0.452114
G1 X103.995 Y104.43 E2.50919
;WIDTH:0.472426
G1 X103.728 Y105.012 E2.54178
;WIDTH:0.488784
G1 X103.614 Y105.521 E2.56939
;WIDTH:0.503528
G1 X103.586 Y106.289 E2.61148
G1 X103.701 Y106.903 E2.6457
;WIDTH:0.482717
G1 X103.942 Y107.482 E2.67842
;WIDTH:0.461988
G1 X104.302 Y107.997 E2.70958
;WIDTH:0.454057
G1 X104.768 Y108.418 E2.7401
;WIDTH:0.47246
G1 X105.313 Y108.726 E2.77196
;WIDTH:0.491511
G1 X105.908 Y108.915 E2.80522
;WIDTH:0.510423
G1 X106.527 Y108.975 E2.83982
G1 X107.066 Y108.935 E2.86989
;WIDTH:0.486685
G1 X107.637 Y108.783 E2.90101
;WIDTH:0.466197
G1 X108.212 Y108.497 E2.93319
;WIDTH:0.445212
G1 X108.694 Y108.106 E2.96267
G1 E.96267 F2400
G92 E0
G1 X106.551 Y103.47 F7800
G1 E2 F2400
;WIDTH:0.510573
G1 F1200
G1 X107.088 Y103.5 E2.02993
;WIDTH:0.492717
G1 X107.606 Y103.634 E2.05851
;WIDTH:0.46989
G1 X108.088 Y103.878 E2.08583
;WIDTH:0.450089
G1 X108.496 Y104.225 E2.1116
;WIDTH:0.461983
G1 X108.795 Y104.682 E2.13868
;WIDTH:0.482696
G1 X108.99 Y105.185 E2.16683
;WIDTH:0.503513
G1 X109.075 Y105.713 E2.19612
G1 X109.077 Y106.29 E2.22772
;WIDTH:0.502225
G1 X109.007 Y106.791 E2.25535
;WIDTH:0.475449
G1 X108.807 Y107.313 E2.28401
;WIDTH:0.456519
G1 X108.496 Y107.783 E2.31157
;WIDTH:0.447243
G1 X108.086 Y108.129 E2.33719
;WIDTH:0.46826
G1 X107.603 Y108.37 E2.36438
;WIDTH:0.489948
G1 X107.082 Y108.505 E2.39295
;WIDTH:0.510423
G1 X106.549 Y108.53 E2.42263
G1 X106.004 Y108.5 E2.453
;WIDTH:0.491511
G1 X105.486 Y108.359 E2.4816
;WIDTH:0.47246
G1 X105.005 Y108.11 E2.50917
;WIDTH:0.454057
G1 X104.726 Y107.904 E2.52603
;WIDTH:0.44286
G1 X104.392 Y107.488 E2.55121
;WIDTH:0.460471
G1 X104.17 Y107.023 E2.57667
;WIDTH:0.482324
G1 X104.041 Y106.494 E2.60505
;WIDTH:0.502245
G1 X104.023 Y105.71 E2.64788
G1 X104.093 Y105.209 E2.67551
;WIDTH:0.475468
G1 X104.293 Y104.687 E2.70417
;WIDTH:0.456527
G1 X104.604 Y104.217 E2.73173
;WIDTH:0.447234
G1 X105.014 Y103.871 E2.75735
;WIDTH:0.468275
G1 X105.497 Y103.63 E2.78454
;WIDTH:0.489964
G1 X106.018 Y103.495 E2.81311
;WIDTH:0.503122
G1 X106.358 Y103.479 E2.83174
G1 E.83174 F2400
G92 E0
G1 X110.342 Y102.586 F7800
G1 E2 F2400
;TYPE:Perimeter
;WIDTH:0.45
G1 F900
G1 X110.943 Y103.394 E2.04843
G1 X111.389 Y104.364 E2.09978
G1 X111.623 Y105.406 E2.15114
G1 X111.636 Y106.474 E2.20251
G1 X111.426 Y107.521 E2.25387
G1 X111.003 Y108.501 E2.30521
G1 X110.386 Y109.373 E2.35659
G1 X109.601 Y110.097 E2.40795
G1 X108.683 Y110.641 E2.45927
;WIDTH:0.451352
G1 X107.671 Y110.984 E2.51084
G1 X107.139 Y111.033 E2.53663
;WIDTH:0.424936
G1 X106.608 Y111.082 E2.56061
;WIDTH:0.448159
G1 X105.547 Y111.008 E2.61152
;WIDTH:0.45
G1 X104.528 Y110.691 E2.66285
G1 X103.597 Y110.168 E2.71421
G1 X102.795 Y109.463 E2.76557
G1 X102.157 Y108.606 E2.81696
G1 X101.711 Y107.636 E2.86831
G1 X101.477 Y106.594 E2.91967
G1 X101.464 Y105.526 E2.97104
G1 X101.674 Y104.479 E3.0224
G1 X102.097 Y103.499 E3.07374
G1 X102.714 Y102.627 E3.12512
G1 X103.499 Y101.903 E3.17648
G1 X104.417 Y101.359 E3.2278
G1 X105.429 Y101.017 E3.27918
G1 X106.49 Y100.893 E3.33056
G1 X107.553 Y100.992 E3.38191
G1 X108.572 Y101.309 E3.43324
G1 X109.409 Y101.778 E3.47939
G1 X109.601 Y101.903 E3.49041
G1 X110.305 Y102.537 E3.53598
G1 X110.059 Y102.84 F7800
;TYPE:External perimeter
G1 F900
G1 X110.631 Y103.621 E3.58254
G1 X111.037 Y104.521 E3.63003
G1 X111.246 Y105.486 E3.67752
G1 X111.25 Y106.474 E3.72504
G1 X111.049 Y107.441 E3.77254
G1 X110.651 Y108.345 E3.82005
G1 X110.074 Y109.146 E3.86753
G1 X109.343 Y109.81 E3.91503
G1 X108.49 Y110.307 E3.96251
G1 X107.552 Y110.617 E4.01002
G1 X106.57 Y110.724 E4.05753
G1 X105.588 Y110.625 E4.105
G1 X104.647 Y110.324 E4.15252
G1 X103.79 Y109.834 E4.2
G1 X103.053 Y109.176 E4.24752
G1 X102.469 Y108.379 E4.29504
G1 X102.063 Y107.479 E4.34253
G1 X101.854 Y106.514 E4.39002
G1 X101.85 Y105.526 E4.43754
G1 X102.051 Y104.559 E4.48504
G1 X102.449 Y103.655 E4.53255
G1 X103.026 Y102.854 E4.58003
G1 X103.757 Y102.19 E4.62753
G1 X104.61 Y101.693 E4.67501
G1 X105.548 Y101.383 E4.72252
G1 X106.53 Y101.276 E4.77003
G1 X107.512 Y101.375 E4.8175
G1 X108.453 Y101.676 E4.86502
G1 X109.217 Y102.112 E4.90733
G1 X110.017 Y102.798 E4.95802
G1 X110.26 Y103.116 F7800
G1 E2.95802 F2400
G92 E0
G1 X97.242 Y102.586 F7800
G1 E2 F2400
;TYPE:Perimeter
G1 F900
G1 X97.843 Y103.394 E2.04843
G1 X98.289 Y104.364 E2.09978
G1 X98.523 Y105.406 E2.15114
G1 X98.536 Y106.474 E2.20251
G1 X98.326 Y107.521 E2.25387
G1 X97.993 Y108.299 E2.29457
G1 X97.843 Y108.606 E2.311
G1 X97.286 Y109.373 E2.35659
G1 X96.501 Y110.097 E2.40795
G1 X95.583 Y110.641 E2.45927
;WIDTH:0.451352
G1 X94.571 Y110.984 E2.51084
G1 X94.039 Y111.033 E2.53663
;WIDTH:0.424936
G1 X93.508 Y111.082 E2.56061
;WIDTH:0.448159
G1 X92.447 Y111.008 E2.61152
;WIDTH:0.45
G1 X91.428 Y110.691 E2.66285
G1 X90.497 Y110.168 E2.71421
G1 X89.695 Y109.463 E2.76557
G1 X89.057 Y108.606 E2.81696
G1 X88.611 Y107.636 E2.86831
G1 X88.377 Y106.594 E2.91967
G1 X88.364 Y105.526 E2.97104
G1 X88.574 Y104.479 E3.0224
G1 X88.997 Y103.499 E3.07374
G1 X89.614 Y102.627 E3.12512
G1 X90.399 Y101.903 E3.17648
G1 X91.317 Y101.359 E3.2278
G1 X92.329 Y101.017 E3.27918
G1 X93.39 Y100.893 E3.33056
G1 X94.453 Y100.992 E3.38191
G1 X95.472 Y101.309 E3.43324
G1 X96.403 Y101.832 E3.4846
G1 X97.205 Y102.537 E3.53596
G1 X96.959 Y102.84 F7800
;TYPE:External perimeter
G1 F900
G1 X97.531 Y103.621 E3.58252
G1 X97.937 Y104.521 E3.63001
G1 X98.146 Y105.486 E3.6775
G1 X98.15 Y106.474 E3.72502
G1 X97.949 Y107.441 E3.77252
G1 X97.531 Y108.379 E3.82191
G1 X96.974 Y109.146 E3.8675
G1 X96.243 Y109.81 E3.915
G1 X95.39 Y110.307 E3.96248
G1 X94.452 Y110.617 E4.00999
G1 X93.47 Y110.724 E4.0575
G1 X92.488 Y110.625 E4.10497
G1 X91.547 Y110.324 E4.15249
G1 X90.69 Y109.834 E4.19997
G1 X89.953 Y109.176 E4.24749
G1 X89.369 Y108.379 E4.29501
G1 X88.963 Y107.479 E4.3425
G1 X88.754 Y106.514 E4.38999
G1 X88.75 Y105.526 E4.43751
G1 X88.951 Y104.559 E4.48501
G1 X89.349 Y103.655 E4.53252
G1 X89.926 Y102.854 E4.58
G1 X90.657 Y102.19 E4.6275
G1 X91.51 Y101.693 E4.67498
G1 X92.448 Y101.383 E4.72249
G1 X93.43 Y101.276 E4.77
G1 X94.412 Y101.375 E4.81747
G1 X95.353 Y101.676 E4.86499
G1 X96.21 Y102.166 E4.91247
G1 X96.918 Y102.798 E4.95812
G1 X97.16 Y103.116 F7800
G1 E2.95812 F2400
G92 E0
G1 X97.242 Y90.586 F7800
G1 E2 F2400
;TYPE:Perimeter
G1 F900
G1 X97.843 Y91.394 E2.04843
G1 X98.289 Y92.364 E2.09978
G1 X98.523 Y93.406 E2.15114
G1 X98.536 Y94.474 E2.20251
G1 X98.326 Y95.521 E2.25387
G1 X97.903 Y96.501 E2.30521
G1 X97.286 Y97.373 E2.35659
G1 X96.501 Y98.097 E2.40795
G1 X95.583 Y98.641 E2.45927
G1 X94.571 Y98.983 E2.51065
G1 X93.51 Y99.107 E2.56203
G1 X92.447 Y99.008 E2.61338
G1 X91.428 Y98.691 E2.66471
G1 X90.591 Y98.222 E2.71086
G1 X90.399 Y98.097 E2.72188
G1 X89.695 Y97.463 E2.76745
G1 X89.057 Y96.606 E2.81884
G1 X88.611 Y95.636 E2.87019
G1 X88.377 Y94.594 E2.92155
G1 X88.364 Y93.526 E2.97292
G1 X88.574 Y92.479 E3.02428
G1 X88.997 Y91.499 E3.07562
G1 X89.614 Y90.627 E3.127
G1 X90.399 Y89.903 E3.17836
G1 X91.317 Y89.359 E3.22968
;WIDTH:0.451365
G1 X92.329 Y89.016 E3.28126
G1 X92.86 Y88.967 E3.307
;WIDTH:0.424943
G1 X93.392 Y88.918 E3.33103
;WIDTH:0.448179
G1 X94.453 Y88.992 E3.38194
;WIDTH:0.45
G1 X95.472 Y89.309 E3.43327
G1 X96.403 Y89.832 E3.48463
G1 X97.205 Y90.537 E3.53599
G1 X96.959 Y90.84 F7800
;TYPE:External perimeter
G1 F900
G1 X97.531 Y91.621 E3.58255
G1 X97.937 Y92.521 E3.63004
G1 X98.146 Y93.486 E3.67753
G1 X98.15 Y94.474 E3.72505
G1 X97.949 Y95.441 E3.77255
G1 X97.551 Y96.345 E3.82006
G1 X96.974 Y97.146 E3.86754
G1 X96.243 Y97.81 E3.91504
G1 X95.39 Y98.307 E3.96252
G1 X94.452 Y98.617 E4.01003
G1 X93.47 Y98.724 E4.05754
G1 X92.488 Y98.625 E4.10501
G1 X91.547 Y98.324 E4.15253
G1 X90.783 Y97.888 E4.19484
G1 X89.953 Y97.176 E4.24744
G1 X89.369 Y96.379 E4.29496
G1 X88.963 Y95.479 E4.34245
G1 X88.754 Y94.514 E4.38994
G1 X88.75 Y93.526 E4.43746
G1 X88.951 Y92.559 E4.48496
G1 X89.349 Y91.655 E4.53247
G1 X89.926 Y90.854 E4.57995
G1 X90.657 Y90.19 E4.62745
G1 X91.51 Y89.693 E4.67493
G1 X92.448 Y89.383 E4.72244
G1 X93.43 Y89.276 E4.76995
G1 X94.412 Y89.375 E4.81742
G1 X95.353 Y89.676 E4.86494
G1 X96.21 Y90.166 E4.91242
G1 X96.918 Y90.798 E4.95807
G1 X97.16 Y91.116 F7800
G1 E2.95807 F2400
G92 E0
G1 X110.342 Y90.586 F7800
G1 E2 F2400
;TYPE:Perimeter
G1 F900
G1 X110.943 Y91.394 E2.04843
G1 X111.389 Y92.364 E2.09978
G1 X111.623 Y93.406 E2.15114
G1 X111.636 Y94.474 E2.20251
G1 X111.426 Y95.521 E2.25387
G1 X111.003 Y96.501 E2.30521
G1 X110.386 Y97.373 E2.35659
G1 X109.601 Y98.097 E2.40795
G1 X108.683 Y98.641 E2.45927
G1 X107.671 Y98.983 E2.51065
G1 X106.61 Y99.107 E2.56203
G1 X105.547 Y99.008 E2.61338
G1 X104.528 Y98.691 E2.66471
G1 X103.597 Y98.168 E2.71607
G1 X102.795 Y97.463 E2.76743
G1 X102.157 Y96.606 E2.81882
G1 X101.711 Y95.636 E2.87017
G1 X101.477 Y94.594 E2.92153
G1 X101.464 Y93.526 E2.9729
G1 X101.674 Y92.479 E3.02426
G1 X102.007 Y91.701 E3.06496
G1 X102.157 Y91.394 E3.08139
G1 X102.714 Y90.627 E3.12698
G1 X103.499 Y89.903 E3.17834
G1 X104.417 Y89.359 E3.22966
;WIDTH:0.451365
G1 X105.429 Y89.016 E3.28124
G1 X105.96 Y88.967 E3.30698
;WIDTH:0.424943
G1 X106.492 Y88.918 E3.33101
;WIDTH:0.448178
G1 X107.553 Y88.992 E3.38192
;WIDTH:0.45
G1 X108.572 Y89.309 E3.43325
G1 X109.503 Y89.832 E3.48461
G1 X110.305 Y90.537 E3.53597
G1 X110.059 Y90.84 F7800
;TYPE:External perimeter
G1 F900
G1 X110.631 Y91.621 E3.58253
G1 X111.037 Y92.521 E3.63002
G1 X111.246 Y93.486 E3.67751
G1 X111.25 Y94.474 E3.72503
G1 X111.049 Y95.441 E3.77253
G1 X110.651 Y96.345 E3.82004
G1 X110.074 Y97.146 E3.86752
G1 X109.343 Y97.81 E3.91502
G1 X108.49 Y98.307 E3.9625
G1 X107.552 Y98.617 E4.01001
G1 X106.57 Y98.724 E4.05752
G1 X105.588 Y98.625 E4.10499
G1 X104.647 Y98.324 E4.15251
G1 X103.79 Y97.834 E4.19999
G1 X103.053 Y97.176 E4.24751
G1 X102.469 Y96.379 E4.29503
G1 X102.063 Y95.479 E4.34252
G1 X101.854 Y94.514 E4.39001
G1 X101.85 Y93.526 E4.43753
G1 X102.051 Y92.559 E4.48503
G1 X102.469 Y91.621 E4.53442
G1 X103.026 Y90.854 E4.58001
G1 X103.757 Y90.19 E4.62751
G1 X104.61 Y89.693 E4.67499
G1 X105.548 Y89.383 E4.7225
G1 X106.53 Y89.276 E4.77001
G1 X107.512 Y89.375 E4.81748
G1 X108.453 Y89.676 E4.865
G1 X109.31 Y90.166 E4.91248
G1 X110.018 Y90.798 E4.95813
G1 X110.26 Y91.116 F7800
G1 E2.95813 F2400
G92 E0
G1 X89.132 Y90.644 F7800
G1 E2 F2400
;TYPE:Perimeter
G1 F900
G1 X88.644 Y91.342 E2.04096
G1 X88.197 Y92.399 E2.09616
;WIDTH:0.484839
G1 X88.114 Y92.704 E2.11274
;WIDTH:0.519678
G1 X88.031 Y93.01 E2.13074
;WIDTH:0.554517
G1 X87.948 Y93.315 E2.15006
G1 X87.931 Y92.999 E2.16941
;WIDTH:0.519678
G1 X87.914 Y92.683 E2.18738
;WIDTH:0.484839
G1 X87.896 Y92.367 E2.20398
;WIDTH:0.45
G1 X87.896 Y88.996 E2.36611
G1 X91.188 Y88.996 E2.52444
G1 X90.141 Y89.617 E2.58299
G1 X89.302 Y90.401 E2.63822
G1 X89.166 Y90.595 E2.64962
G1 E.64962 F2400
G92 E0
G1 X87.945 Y106.649 F7800
G1 E2 F2400
;WIDTH:0.547539
G1 F900
G1 X87.937 Y105.526 E2.06768
;WIDTH:0.554515
G1 X87.948 Y105.315 E2.0806
G1 E.0806 F2400
G92 E0
G1 X89.691 Y109.97 F7800
G1 E2 F2400
;WIDTH:0.45
G1 F900
G1 X90.304 Y110.502 E2.03904
G1 X91.188 Y111.004 E2.08793
G1 X87.896 Y111.004 E2.24626
G1 X87.896 Y107.633 E2.40839
;WIDTH:0.498769
G1 X87.926 Y107.158 E2.43418
;WIDTH:0.547539
G1 X87.956 Y106.683 E2.46286
;WIDTH:0.538644
G1 X88.108 Y107.238 E2.4969
;WIDTH:0.494322
G1 X88.259 Y107.793 E2.52774
;WIDTH:0.45
G1 X88.745 Y108.833 E2.58295
G1 X89.437 Y109.749 E2.63817
G1 X89.646 Y109.93 E2.65147
G1 E.65147 F2400
G92 E0
G1 X110.728 Y109.556 F7800
G1 E2 F2400
G1 F900
G1 X111.356 Y108.658 E2.0527
G1 X111.803 Y107.601 E2.1079
;WIDTH:0.498794
G1 X111.929 Y107.125 E2.13458
;WIDTH:0.547589
G1 X112.055 Y106.649 E2.16426
G1 X112.059 Y106.685 E2.16644
;WIDTH:0.538715
G1 X112.082 Y107.159 E2.19452
;WIDTH:0.494357
G1 X112.104 Y107.632 E2.21991
;WIDTH:0.45
G1 X112.104 Y111.004 E2.38209
G1 X108.812 Y111.004 E2.54042
G1 X109.859 Y110.383 E2.59897
G1 X110.693 Y109.604 E2.65386
G1 E.65386 F2400
G92 E0
G1 X112.051 Y93.315 F7800
G1 E2 F2400
;WIDTH:0.554545
G1 F900
G1 X112.063 Y94.474 E2.07086
;WIDTH:0.547589
G1 X112.055 Y94.649 E2.08142
G1 X112.051 Y93.315 F7800
;WIDTH:0.554545
G1 F900
G1 X111.948 Y92.946 E2.10484
;WIDTH:0.519696
G1 X111.845 Y92.577 E2.1266
;WIDTH:0.484848
G1 X111.741 Y92.207 E2.14676
;WIDTH:0.45
G1 X111.255 Y91.167 E2.20197
G1 X110.563 Y90.251 E2.25719
G1 X109.696 Y89.498 E2.31242
G1 X108.811 Y88.996 E2.36136
G1 X112.104 Y88.996 E2.51974
G1 X112.104 Y92.368 E2.68192
;WIDTH:0.484848
G1 X112.086 Y92.683 E2.69847
;WIDTH:0.519696
G1 X112.069 Y92.999 E2.71644
;WIDTH:0.554545
G1 X112.055 Y93.255 E2.73211
G1 E.73211 F2400
G92 E0
G1 X87.945 Y94.649 F7800
G1 E2 F2400
;WIDTH:0.547539
G1 F900
G1 X87.937 Y93.526 E2.06768
;WIDTH:0.554517
G1 X87.948 Y93.315 E2.0806
G1 E.0806 F2400
G92 E0
G1 X112.051 Y105.315 F7800
G1 E2 F2400
;WIDTH:0.554545
G1 F900
G1 X112.063 Y106.474 E2.07086
;WIDTH:0.547589
G1 X112.055 Y106.649 E2.08142
G1 E.08142 F2400
G92 E0
G1 X87.948 Y105.315 F7800
G1 E2 F2400
;WIDTH:0.554515
G1 F3600
G1 X87.931 Y104.999 E2.01935
;WIDTH:0.519676
G1 X87.914 Y104.683 E2.03732
;WIDTH:0.484838
G1 X87.896 Y104.367 E2.05392
;WIDTH:0.45
G1 X87.896 Y95.633 E2.474
;WIDTH:0.498769
G1 X87.921 Y95.141 E2.50069
;WIDTH:0.547539
G1 X87.945 Y94.649 E2.53037
G1 X87.956 Y94.683 E2.53252
;WIDTH:0.538644
G1 X88.108 Y95.238 E2.56656
;WIDTH:0.494322
G1 X88.259 Y95.793 E2.5974
;WIDTH:0.45
G1 X88.745 Y96.833 E2.65261
G1 X89.437 Y97.749 E2.70783
G1 X90.141 Y98.383 E2.7534
G1 X90.398 Y98.556 E2.7683
G1 X91.309 Y99.057 E2.8183
G1 X92.407 Y99.392 E2.87351
G1 X93.551 Y99.491 E2.92874
G1 X94.69 Y99.35 E2.98394
G1 X95.775 Y98.975 E3.03915
G1 X96.759 Y98.383 E3.09438
G1 X97.598 Y97.599 E3.14961
G1 X98.256 Y96.658 E3.20484
G1 X98.703 Y95.601 E3.26004
G1 X98.921 Y94.474 E3.31525
G1 X98.9 Y93.326 E3.37047
G1 X98.641 Y92.207 E3.42571
G1 X98.155 Y91.167 E3.48092
G1 X97.463 Y90.251 E3.53614
G1 X96.596 Y89.498 E3.59137
G1 X95.711 Y88.996 E3.64031
G1 X104.289 Y88.996 E4.05288
G1 X103.241 Y89.617 E4.11147
G1 X102.402 Y90.401 E4.1667
G1 X101.845 Y91.167 E4.21225
G1 X101.654 Y91.544 E4.23258
G1 X101.297 Y92.399 E4.27714
G1 X101.079 Y93.526 E4.33235
G1 X101.1 Y94.674 E4.38757
G1 X101.359 Y95.793 E4.44281
G1 X101.845 Y96.833 E4.49802
G1 X102.537 Y97.749 E4.55324
G1 X103.404 Y98.502 E4.60847
G1 X104.409 Y99.057 E4.66369
G1 X105.507 Y99.392 E4.7189
G1 X106.651 Y99.491 E4.77413
G1 X107.79 Y99.35 E4.82933
G1 X108.875 Y98.975 E4.88454
G1 X109.859 Y98.383 E4.93977
G1 X110.698 Y97.599 E4.995
G1 X111.356 Y96.658 E5.05023
G1 X111.803 Y95.601 E5.10543
;WIDTH:0.498794
G1 X111.929 Y95.125 E5.13211
;WIDTH:0.547589
G1 X112.055 Y94.649 E5.16179
G1 X112.059 Y94.685 E5.16397
;WIDTH:0.538715
G1 X112.082 Y95.159 E5.19205
;WIDTH:0.494357
G1 X112.104 Y95.632 E5.21744
;WIDTH:0.45
G1 X112.104 Y104.368 E5.63761
;WIDTH:0.484848
G1 X112.086 Y104.683 E5.65416
;WIDTH:0.519696
G1 X112.069 Y104.999 E5.67213
;WIDTH:0.554545
G1 X112.051 Y105.315 E5.69148
G1 X111.948 Y104.946 E5.7149
;WIDTH:0.519696
G1 X111.845 Y104.577 E5.73666
;WIDTH:0.484848
G1 X111.741 Y104.207 E5.75682
;WIDTH:0.45
G1 X111.255 Y103.167 E5.81203
G1 X110.563 Y102.251 E5.86725
G1 X109.859 Y101.617 E5.91282
G1 X109.602 Y101.444 E5.92772
G1 X108.691 Y100.943 E5.97772
G1 X107.593 Y100.608 E6.03293
G1 X106.449 Y100.509 E6.08816
G1 X105.31 Y100.65 E6.14336
G1 X104.225 Y101.025 E6.19857
G1 X103.241 Y101.617 E6.2538
G1 X102.402 Y102.401 E6.30903
G1 X101.744 Y103.342 E6.36426
G1 X101.297 Y104.399 E6.41946
G1 X101.079 Y105.526 E6.47467
G1 X101.1 Y106.674 E6.52989
G1 X101.359 Y107.793 E6.58513
G1 X101.845 Y108.833 E6.64034
G1 X102.537 Y109.749 E6.69556
G1 X103.404 Y110.502 E6.75079
G1 X104.288 Y111.004 E6.79968
G1 X95.712 Y111.004 E7.21216
G1 X96.759 Y110.383 E7.27071
G1 X97.598 Y109.599 E7.32594
G1 X98.155 Y108.833 E7.37149
G1 X98.346 Y108.456 E7.39182
G1 X98.703 Y107.601 E7.43638
G1 X98.921 Y106.474 E7.49159
G1 X98.9 Y105.326 E7.54681
G1 X98.641 Y104.207 E7.60205
G1 X98.155 Y103.167 E7.65726
G1 X97.463 Y102.251 E7.71248
G1 X96.596 Y101.498 E7.76771
G1 X95.591 Y100.943 E7.82293
G1 X94.493 Y100.608 E7.87814
G1 X93.349 Y100.509 E7.93337
G1 X92.21 Y100.65 E7.98857
G1 X91.125 Y101.025 E8.04378
G1 X90.141 Y101.617 E8.09901
G1 X89.302 Y102.401 E8.15424
G1 X88.644 Y103.342 E8.20947
G1 X88.197 Y104.399 E8.26467
;WIDTH:0.484838
G1 X88.114 Y104.704 E8.28125
;WIDTH:0.519676
G1 X88.031 Y105.01 E8.29925
;WIDTH:0.554515
G1 X87.964 Y105.257 E8.3149
G1 E6.3149 F2400
G92 E0
G1 X87.511 Y111.389 F7800
G1 E2 F2400
;WIDTH:0.45
G1 F3600
G1 X87.511 Y88.611 E3.09554
G1 X92.427 Y88.61 E3.33198
;WIDTH:0.448179
G1 X93.525 Y88.585 E3.38455
;WIDTH:0.423722
G1 X94.08 Y88.597 E3.40943
;WIDTH:0.448923
G1 X94.635 Y88.61 E3.43606
;WIDTH:0.45
G1 X105.527 Y88.61 E3.95993
;WIDTH:0.448179
G1 X106.625 Y88.585 E4.0125
;WIDTH:0.423722
G1 X107.18 Y88.597 E4.03738
;WIDTH:0.448922
G1 X107.735 Y88.61 E4.06401
;WIDTH:0.45
G1 X112.489 Y88.611 E4.29266
G1 X112.489 Y111.389 E5.3882
G1 X107.573 Y111.39 E5.62464
;WIDTH:0.448158
G1 X106.475 Y111.415 E5.67721
;WIDTH:0.423715
G1 X105.92 Y111.403 E5.70209
;WIDTH:0.448911
G1 X105.365 Y111.39 E5.72872
;WIDTH:0.45
G1 X94.473 Y111.39 E6.25259
;WIDTH:0.448158
G1 X93.375 Y111.415 E6.30516
;WIDTH:0.423715
G1 X92.82 Y111.403 E6.33004
;WIDTH:0.448911
G1 X92.265 Y111.39 E6.35667
;WIDTH:0.45
G1 X87.571 Y111.389 E6.58244
G1 X87.125 Y111.775 F7800
;TYPE:External perimeter
G1 F1800
G1 X87.125 Y88.225 E7.71511
G1 X112.875 Y88.225 E8.9536
G1 X112.875 Y111.775 E10.08627
G1 X87.185 Y111.775 E11.32187
G1 X87.126 Y111.379 F7800
G1 E9.32187 F2400
G92 E0
G1 X88.185 Y108.414 F7800
G1 E2 F2400
;TYPE:Solid infill
G1 F1200
G1 X88.222 Y108.422 E2.00182
G1 X88.514 Y109.007 E2.03327
G1 X89.125 Y109.843 E2.08307
G1 X90.074 Y110.715 E2.14506
G1 X88.185 Y110.715 E2.23591
G1 X88.185 Y108.607 E2.3373
G1 X88.548 Y109.667 F7800
;WIDTH:0.403383
G1 F1200
G1 X88.821 Y110.041 E2.35688
G1 X89.144 Y110.352 E2.37584
G1 X88.548 Y110.352 E2.40104
G1 X88.548 Y109.86 E2.42184
G1 E.42184 F2400
G92 E0
G1 X88.015 Y101.178 F7800
G1 E2 F2400
;TYPE:Bridge infill
;WIDTH:0.406973
;HEIGHT:0.4
M106 S255
G1 F3600
G1 X88.494 Y102.966 E2.10011
G1 X88.84 Y102.49 E2.13194
G1 X88.218 Y100.168 E2.26195
G1 X88.218 Y98.402 E2.35746
G1 X89.193 Y102.043 E2.56131
G1 X89.573 Y101.696 E2.58914
G1 X88.218 Y96.637 E2.87239
G1 X88.218 Y96.49 E2.88034
G1 X88.353 Y96.795 E2.89838
G1 X88.481 Y97.016 E2.91219
G1 X88.974 Y97.695 E2.95757
G1 X89.955 Y101.356 E3.16255
G1 X90.138 Y101.223 E3.17478
G1 X90.359 Y101.097 E3.18854
G1 X89.623 Y98.349 E3.3424
G1 X89.931 Y98.626 E3.3648
G1 X90.223 Y98.826 E3.38394
G1 X90.769 Y100.863 E3.49799
G1 X91.078 Y100.687 E3.51722
G1 X91.186 Y100.651 E3.52338
G1 X90.782 Y99.144 E3.60776
G1 X91.078 Y99.313 E3.62619
G1 X91.322 Y99.394 E3.64009
G1 X91.62 Y100.507 E3.7024
G1 X92.055 Y100.363 E3.72718
G1 X91.841 Y99.566 E3.77181
G1 X92.116 Y99.658 E3.78749
G1 X92.352 Y99.708 E3.80054
G1 X92.504 Y100.275 E3.83229
G1 X92.964 Y100.226 E3.85731
G1 X92.839 Y99.761 E3.88335
G1 X93.326 Y99.812 E3.90983
G1 X93.427 Y100.187 E3.93083
G1 X93.91 Y100.224 E3.95703
G1 X93.793 Y99.789 E3.98139
G1 X94.253 Y99.74 E4.00641
G1 X94.397 Y100.275 E4.03637
G1 X94.533 Y100.289 E4.04376
G1 X94.898 Y100.38 E4.0641
G1 X94.709 Y99.674 E4.10363
G1 X95.146 Y99.54 E4.12835
G1 X95.417 Y100.553 E4.18506
G1 X95.822 Y100.687 E4.20813
G1 X95.945 Y100.757 E4.21578
G1 X95.581 Y99.399 E4.29182
G1 X96.005 Y99.214 E4.31684
G1 X96.504 Y101.076 E4.42109
G1 X96.762 Y101.223 E4.43715
G1 X97.084 Y101.478 E4.45936
G1 X96.414 Y98.978 E4.59934
G1 X96.822 Y98.733 E4.62508
G1 X97.844 Y102.546 E4.83857
M107
G1 E2.83857 F2400
G92 E0
G1 X97.072 Y110.261 F7800
G1 E2 F2400
M106 S255
G1 F3600
G1 X97.185 Y110.682 E2.02357
G1 X97.658 Y110.682 E2.04915
G1 X97.512 Y110.137 E2.07966
G1 X97.683 Y109.983 E2.09211
G1 X97.883 Y109.754 E2.10855
G1 X98.131 Y110.682 E2.1605
G1 X98.605 Y110.682 E2.18614
G1 X98.228 Y109.279 E2.26471
G1 X98.419 Y109.016 E2.28229
G1 X98.562 Y108.759 E2.2982
G1 X99.078 Y110.682 E2.40588
G1 X99.551 Y110.682 E2.43146
G1 X98.856 Y108.09 E2.57659
G1 X98.982 Y107.802 E2.59359
G1 X99.104 Y107.248 E2.62427
G1 X100.024 Y110.682 E2.81654
G1 X100.497 Y110.682 E2.84212
G1 X99.24 Y105.991 E3.10477
G1 X99.236 Y105.39 E3.13727
G1 X98.982 Y104.198 E3.20318
G1 X98.547 Y103.205 E3.26181
G1 X98.447 Y103.033 E3.27257
G1 X97.208 Y98.409 E3.53147
G1 X97.589 Y98.064 E3.55927
G1 X100.97 Y110.682 E4.26575
G1 X101.443 Y110.682 E4.29133
G1 X97.951 Y97.65 E5.02099
G1 X98.298 Y97.18 E5.05259
G1 X101.916 Y110.682 E5.80857
G1 X102.389 Y110.682 E5.83415
G1 X102.153 Y109.802 E5.88342
G1 X102.317 Y109.983 E5.89663
G1 X102.789 Y110.409 E5.93102
G1 X102.917 Y110.885 E5.95768
M107
G1 E3.95768 F2400
G92 E0
G1 X100.971 Y105.389 F7800
G1 E2 F2400
M106 S255
G1 F3600
G1 X98.622 Y96.623 E2.49081
G1 X98.916 Y95.954 E2.53033
G1 X101.085 Y104.048 E2.98352
G1 X101.38 Y103.386 E3.02272
G1 X99.028 Y94.606 E3.5143
M107
G1 E1.5143 F2400
G92 E0
G1 X97.307 Y89.951 F7800
G1 E2 F2400
M106 S255
G1 F3600
G1 X97.138 Y89.318 E2.03543
G1 X97.611 Y89.318 E2.06101
G1 X97.992 Y90.741 E2.14068
M107
G1 X98.03 Y89.115 F7800
M106 S255
G1 F3600
G1 X101.703 Y102.823 E2.90819
G1 X102.047 Y102.344 E2.94008
G1 X98.557 Y89.318 E3.6694
G1 X99.03 Y89.318 E3.69498
G1 X102.41 Y101.933 E4.40129
G1 X102.792 Y101.593 E4.42895
G1 X101.553 Y96.968 E4.6879
G1 X101.453 Y96.795 E4.69871
G1 X101.018 Y95.801 E4.75739
G1 X100.762 Y94.588 E4.82444
G1 X100.759 Y94.005 E4.85597
G1 X99.503 Y89.318 E5.1184
G1 X99.976 Y89.318 E5.14398
G1 X100.896 Y92.752 E5.33625
G1 X101.018 Y92.198 E5.36693
G1 X101.144 Y91.91 E5.38393
G1 X100.449 Y89.318 E5.52906
G1 X100.922 Y89.318 E5.55464
G1 X101.438 Y91.241 E5.66232
G1 X101.581 Y90.984 E5.67823
G1 X101.772 Y90.721 E5.69581
G1 X101.396 Y89.318 E5.77437
G1 X101.869 Y89.318 E5.79995
G1 X102.117 Y90.246 E5.8519
G1 X102.317 Y90.017 E5.86834
G1 X102.488 Y89.863 E5.88079
G1 X102.342 Y89.318 E5.9113
G1 X102.815 Y89.318 E5.93688
G1 X102.928 Y89.739 E5.96045
M107
G1 E3.96045 F2400
G92 E0
G1 X102.16 Y97.469 F7800
G1 E2 F2400
M106 S255
G1 F3600
G1 X103.178 Y101.266 E2.2126
G1 X103.587 Y101.026 E2.23825
G1 X102.914 Y98.516 E2.37879
G1 X103.123 Y98.702 E2.39392
G1 X103.495 Y98.92 E2.41724
G1 X103.995 Y100.786 E2.52172
G1 X104.419 Y100.601 E2.54674
G1 X104.057 Y99.249 E2.62243
G1 X104.303 Y99.361 E2.63705
G1 X104.584 Y99.452 E2.65302
G1 X104.854 Y100.46 E2.70946
G1 X105.291 Y100.326 E2.73418
G1 X105.102 Y99.621 E2.77365
G1 X105.467 Y99.711 E2.79398
G1 X105.604 Y99.725 E2.80143
G1 X105.747 Y100.26 E2.83138
G1 X106.207 Y100.211 E2.8564
G1 X106.09 Y99.776 E2.88076
G1 X106.573 Y99.812 E2.90695
G1 X106.674 Y100.189 E2.92806
G1 X107.161 Y100.239 E2.95454
G1 X107.036 Y99.774 E2.98058
G1 X107.496 Y99.725 E3.0056
G1 X107.648 Y100.292 E3.03735
G1 X107.884 Y100.342 E3.0504
G1 X108.159 Y100.434 E3.06608
G1 X107.945 Y99.637 E3.11071
G1 X108.38 Y99.493 E3.13549
G1 X108.678 Y100.606 E3.1978
G1 X108.922 Y100.687 E3.2117
G1 X109.218 Y100.856 E3.23013
G1 X108.814 Y99.349 E3.31451
G1 X108.922 Y99.313 E3.32067
G1 X109.231 Y99.137 E3.3399
G1 X109.777 Y101.174 E3.45395
G1 X110.069 Y101.374 E3.47309
G1 X110.377 Y101.651 E3.49549
G1 X109.641 Y98.903 E3.64935
G1 X109.862 Y98.777 E3.66311
G1 X110.045 Y98.644 E3.67534
G1 X111.026 Y102.305 E3.88032
G1 X111.519 Y102.984 E3.9257
G1 X111.647 Y103.205 E3.93951
G1 X111.782 Y103.51 E3.95755
G1 X111.782 Y103.363 E3.9655
G1 X110.427 Y98.304 E4.24875
G1 X110.807 Y97.957 E4.27658
G1 X111.782 Y101.598 E4.48043
G1 X111.782 Y99.832 E4.57594
G1 X111.16 Y97.51 E4.70595
G1 X111.506 Y97.034 E4.73778
G1 X111.985 Y98.822 E4.83789
M107
G1 E2.83789 F2400
G92 E0
G1 X111.622 Y89.285 F7800
G1 E2 F2400
;TYPE:Solid infill
;WIDTH:0.45
;HEIGHT:0.3
G1 F1200
G1 X109.926 Y89.285 E2.08157
G1 X110.875 Y90.157 E2.14356
G1 X111.486 Y90.993 E2.19336
G1 X111.778 Y91.578 E2.22481
G1 X111.815 Y90.925 E2.25627
G1 X111.815 Y89.285 E2.33515
G1 X110.995 Y89.782 F7800
;WIDTH:0.403372
G1 F1200
G1 X111.179 Y89.959 E2.34594
G1 X111.452 Y90.333 E2.36552
G1 X111.452 Y89.648 E2.39448
G1 X110.856 Y89.648 E2.41968
G1 E.41968 F2400
G92 E0
G1 X111.815 Y108.414 F7800
G1 E2 F2400
;WIDTH:0.45
G1 F1200
G1 X111.815 Y110.715 E2.11067
G1 X109.938 Y110.715 E2.20095
G1 X110.875 Y109.843 E2.26251
G1 X111.496 Y108.993 E2.31314
G1 X111.707 Y108.557 E2.33644
G1 X111.452 Y109.667 F7800
;WIDTH:0.403369
G1 F1200
G1 X111.452 Y110.352 E2.3654
G1 X110.856 Y110.352 E2.3906
G1 X111.154 Y110.073 E2.40786
G1 X111.338 Y109.822 E2.42102
G1 E.42102 F2400
G92 E0
G1 X88.185 Y89.285 F7800
G1 E2 F2400
;WIDTH:0.45
G1 F1200
G1 X90.062 Y89.285 E2.09028
G1 X89.125 Y90.157 E2.15184
G1 X88.504 Y91.007 E2.20247
G1 X88.228 Y91.578 E2.23297
G1 X88.185 Y91.586 E2.23507
G1 X88.185 Y89.478 E2.33646
G1 X88.951 Y89.648 F7800
;WIDTH:0.403387
G1 F1200
G1 X88.548 Y89.648 E2.3535
G1 X88.548 Y90.333 E2.38246
G1 X88.846 Y89.927 E2.40375
G1 X89.144 Y89.648 E2.42101
;LAYER_CHANGE
